NORAD_CAT_ID,OBJECT_NAME,OBJECT_TYPE,EPOCH,MEAN_MOTION,ECCENTRICITY,INCLINATION,RA_OF_ASC_NODE,ARG_OF_PERICENTER,MEAN_ANOMALY,BSTAR,MEAN_MOTION_DOT,MEAN_MOTION_DDOT,TLE_LINE0,TLE_LINE1,TLE_LINE2,SEMIMAJOR_AXIS,PERIOD,APOGEE,PERIGEE,DECAYED
49431.0,STARLINK-3153,PAYLOAD,2023-07-18 09:39:57,15.0884894,0.0001059,53.2151,242.7203,90.4365,269.6749,0.00032807,4.939e-05,0.0,0 STARLINK-3153,1 49431U 21104Z   23199.40275278  .00004939  00000-0  32807-3 0  9996,2 49431  53.2151 242.7203 0001059  90.4365 269.6749 15.08848940 93981,6917.853,95.437,540.451,538.985,0.0
49431.0,STARLINK-3153,PAYLOAD,2023-07-19 03:09:12,15.08843071,0.0001192,53.2157,239.4474,91.5176,268.5953,8.5683e-05,1.076e-05,0.0,0 STARLINK-3153,1 49431U 21104Z   23200.13139307  .00001076  00000-0  85683-4 0  9991,2 49431  53.2157 239.4474 0001192  91.5176 268.5953 15.08843071 94098,6917.871,95.437,540.561,538.911,0.0
49431.0,STARLINK-3153,PAYLOAD,2023-07-19 09:30:45,15.08825855,0.000127,53.2159,238.2577,104.5885,255.5248,0.00035592,5.379e-05,0.0,0 STARLINK-3153,1 49431U 21104Z   23200.39636119  .00005379  00000-0  35592-3 0  9995,2 49431  53.2159 238.2577 0001270 104.5885 255.5248 15.08825855 94138,6917.924,95.438,540.667,538.91,0.0
49431.0,STARLINK-3153,PAYLOAD,2023-07-19 11:06:08,15.08837873,0.0001205,53.2157,237.9601,101.1369,258.9759,-5.453e-06,-3.75e-06,0.0,0 STARLINK-3153,1 49431U 21104Z   23200.46259499 -.00000375  00000-0 -54530-5 0  9993,2 49431  53.2157 237.9601 0001205 101.1369 258.9759 15.08837873 94146,6917.887,95.438,540.585,538.918,0.0
49431.0,STARLINK-3153,PAYLOAD,2023-07-21 01:15:23,15.08837227,0.0001047,53.2162,230.8243,100.0807,260.0303,8.0755e-05,9.98e-06,0.0,0 STARLINK-3153,1 49431U 21104Z   23202.05235746  .00000998  00000-0  80755-4 0  9995,2 49431  53.2162 230.8243 0001047 100.0807 260.0303 15.08837227 94383,6917.889,95.438,540.478,539.03,0.0
49431.0,STARLINK-3153,PAYLOAD,2023-07-24 00:47:44,15.08840862,0.0001138,53.2162,217.4439,82.2375,277.8746,7.379e-05,8.87e-06,0.0,0 STARLINK-3153,1 49431U 21104Z   23205.03315895  .00000887  00000-0  73790-4 0  9998,2 49431  53.2162 217.4439 0001138  82.2375 277.8746 15.08840862 93759,6917.878,95.438,540.53,538.955,0.0
49431.0,STARLINK-3153,PAYLOAD,2023-07-25 10:10:50,15.0884203,9.63e-05,53.2156,211.1999,84.5205,275.5897,6.4497e-05,7.39e-06,0.0,0 STARLINK-3153,1 49431U 21104Z   23206.42419796  .00000739  00000-0  64497-4 0  9997,2 49431  53.2156 211.1999 0000963  84.5205 275.5897 15.08842030 93960,6917.874,95.437,540.405,539.073,0.0
49431.0,STARLINK-3153,PAYLOAD,2023-07-26 03:40:05,15.08839258,9.93e-05,53.2148,207.9283,78.9161,281.1943,3.993e-05,3.48e-06,0.0,0 STARLINK-3153,1 49431U 21104Z   23207.15284058  .00000348  00000-0  39930-4 0  9999,2 49431  53.2148 207.9283 0000993  78.9161 281.1943 15.08839258 94077,6917.883,95.438,540.435,539.061,0.0
49431.0,STARLINK-3153,PAYLOAD,2023-07-26 06:50:51,15.08840305,0.0001022,53.2149,207.3336,79.5399,280.5708,4.5062e-05,4.29e-06,0.0,0 STARLINK-3153,1 49431U 21104Z   23207.28531967  .00000429  00000-0  45062-4 0  9990,2 49431  53.2149 207.3336 0001022  79.5399 280.5708 15.08840305 94094,6917.879,95.438,540.451,539.037,0.0
49431.0,STARLINK-3153,PAYLOAD,2023-07-27 00:20:06,15.08840166,0.0001031,53.2149,204.0626,80.9809,279.13,5.1796e-05,5.37e-06,0.0,0 STARLINK-3153,1 49431U 21104Z   23208.01395925  .00000537  00000-0  51796-4 0  9995,2 49431  53.2149 204.0626 0001031  80.9809 279.1300 15.08840166 95281,6917.88,95.438,540.458,539.032,0.0
49431.0,STARLINK-3153,PAYLOAD,2023-07-27 06:41:38,15.08842147,0.0001048,53.2154,202.873,92.7449,267.3663,6.4319e-05,7.36e-06,0.0,0 STARLINK-3153,1 49431U 21104Z   23208.27891725  .00000736  00000-0  64319-4 0  9998,2 49431  53.2154 202.8730 0001048  92.7449 267.3663 15.08842147 94245,6917.874,95.437,540.464,539.014,0.0
49431.0,STARLINK-3153,PAYLOAD,2023-07-27 16:13:57,15.08835607,0.0001031,53.2152,201.0888,88.7077,271.4033,2.0555e-05,3.9e-07,0.0,0 STARLINK-3153,1 49431U 21104Z   23208.67636290  .00000039  00000-0  20555-4 0  9996,2 49431  53.2152 201.0888 0001031  88.7077 271.4033 15.08835607 94309,6917.894,95.438,540.472,539.046,0.0
49431.0,STARLINK-3153,PAYLOAD,2023-07-28 00:10:53,15.08831743,0.0001092,53.2157,199.6029,93.1038,267.0079,3.8363e-06,-2.27e-06,0.0,0 STARLINK-3153,1 49431U 21104Z   23209.00756701 -.00000227  00000-0  38363-5 0  9991,2 49431  53.2157 199.6029 0001092  93.1038 267.0079 15.08831743 95430,6917.906,95.438,540.526,539.015,0.0
49431.0,STARLINK-3153,PAYLOAD,2023-07-28 06:32:26,15.08831923,0.0001068,53.2161,198.4135,94.6307,265.4807,-5.1069e-07,-2.96e-06,0.0,0 STARLINK-3153,1 49431U 21104Z   23209.27252791 -.00000296  00000-0 -51069-6 0  9996,2 49431  53.2161 198.4135 0001068  94.6307 265.4807 15.08831923 94393,6917.905,95.438,540.509,539.031,0.0
49431.0,STARLINK-3153,PAYLOAD,2023-07-29 07:58:36,15.08840333,0.0001061,53.2163,193.6557,94.2298,265.8815,3.663e-05,2.95e-06,0.0,0 STARLINK-3153,1 49431U 21104Z   23210.33236436  .00000295  00000-0  36630-4 0  9995,2 49431  53.2163 193.6557 0001061  94.2298 265.8815 15.08840333 95634,6917.879,95.438,540.478,539.01,0.0
49431.0,STARLINK-3153,PAYLOAD,2023-07-30 15:46:19,15.08836937,0.0001109,53.2164,187.7073,83.6113,276.5006,6.0912e-05,6.82e-06,0.0,0 STARLINK-3153,1 49431U 21104Z   23211.65716834  .00000682  00000-0  60912-4 0  9996,2 49431  53.2164 187.7073 0001109  83.6113 276.5006 15.08836937 95831,6917.89,95.438,540.522,538.988,0.0
49431.0,STARLINK-3153,PAYLOAD,2023-08-01 02:44:48,15.08843442,0.0001168,53.216,181.1658,84.8401,275.2725,3.38e-05,2.5e-06,0.0,0 STARLINK-3153,1 49431U 21104Z   23213.11444583  .00000250  00000-0  33800-4 0  9995,2 49431  53.2160 181.1658 0001168  84.8401 275.2725 15.08843442 96050,6917.87,95.437,540.543,538.927,0.0
49431.0,STARLINK-3153,PAYLOAD,2023-08-02 01:00:12,15.08835533,0.0001145,53.2172,177.0025,94.2042,265.9081,9.8809e-05,1.285e-05,0.0,0 STARLINK-3153,1 49431U 21104Z   23214.04180836  .00001285  00000-0  98809-4 0  9995,2 49431  53.2172 177.0025 0001145  94.2042 265.9081 15.08835533 96194,6917.894,95.438,540.551,538.967,0.0
49431.0,STARLINK-3153,PAYLOAD,2023-08-03 02:26:22,15.08837559,0.0001338,53.2167,172.2449,100.3319,259.7824,1.5988e-05,-3.3e-07,0.0,0 STARLINK-3153,1 49431U 21104Z   23215.10165078 -.00000033  00000-0  15988-4 0  9992,2 49431  53.2167 172.2449 0001338 100.3319 259.7824 15.08837559 96359,6917.888,95.438,540.678,538.827,0.0
49431.0,STARLINK-3153,PAYLOAD,2023-08-04 02:17:10,15.08832574,0.0001333,53.2165,167.7836,102.556,257.5581,3.6256e-06,-2.3e-06,0.0,0 STARLINK-3153,1 49431U 21104Z   23216.09525752 -.00000230  00000-0  36256-5 0  9991,2 49431  53.2165 167.7836 0001333 102.5560 257.5581 15.08832574 96508,6917.903,95.438,540.69,538.846,0.0
49431.0,STARLINK-3153,PAYLOAD,2023-08-05 02:07:57,15.08838953,0.000122,53.2167,163.3235,97.0539,263.0592,7.1065e-05,8.43e-06,0.0,0 STARLINK-3153,1 49431U 21104Z   23217.08885458  .00000843  00000-0  71065-4 0  9998,2 49431  53.2167 163.3235 0001220  97.0539 263.0592 15.08838953 96651,6917.884,95.438,540.593,538.905,0.0
49431.0,STARLINK-3153,PAYLOAD,2023-08-05 05:18:42,15.08864783,0.0001344,53.2167,162.7286,103.8852,256.229,-0.00021988,-3.788e-05,0.0,0 STARLINK-3153,1 49431U 21104Z   23217.22132607 -.00003788  00000-0 -21988-3 0  9996,2 49431  53.2167 162.7286 0001344 103.8852 256.2290 15.08864783 96672,6917.805,95.436,540.599,538.74,0.0
49431.0,STARLINK-3153,PAYLOAD,2023-08-06 03:34:06,15.08849586,0.0001089,53.2164,158.5662,94.8174,265.2942,9.4315e-05,1.214e-05,0.0,0 STARLINK-3153,1 49431U 21104Z   23218.14868671  .00001214  00000-0  94315-4 0  9990,2 49431  53.2164 158.5662 0001089  94.8174 265.2942 15.08849586 96816,6917.851,95.437,540.469,538.963,0.0
49431.0,STARLINK-3153,PAYLOAD,2023-08-06 19:27:59,15.08825396,0.0001399,53.2164,155.5924,95.3824,264.7328,-6.5044e-05,-1.323e-05,0.0,0 STARLINK-3153,1 49431U 21104Z   23218.81110888 -.00001323  00000-0 -65044-4 0  9994,2 49431  53.2164 155.5924 0001399  95.3824 264.7328 15.08825396 96912,6917.925,95.438,540.758,538.822,0.0
49431.0,STARLINK-3153,PAYLOAD,2023-08-07 19:18:45,15.08846104,0.000114,53.217,151.1326,100.7431,259.369,5.356e-06,-2.03e-06,0.0,0 STARLINK-3153,1 49431U 21104Z   23219.80469722 -.00000203  00000-0  53560-5 0  9994,2 49431  53.2170 151.1326 0001140 100.7431 259.3690 15.08846104 97065,6917.862,95.437,540.515,538.938,0.0
49431.0,STARLINK-3153,PAYLOAD,2023-08-08 00:04:54,15.0885406,0.0001153,53.2163,150.241,124.3,235.8101,5.0299e-05,5.13e-06,0.0,0 STARLINK-3153,1 49431U 21104Z   23220.00340898  .00000513  00000-0  50299-4 0  9998,2 49431  53.2163 150.2410 0001153 124.3000 235.8101 15.08854060 97098,6917.837,95.437,540.5,538.905,0.0
49431.0,STARLINK-3153,PAYLOAD,2023-08-08 23:55:42,15.08834284,0.0001342,53.2176,145.7819,94.1497,265.9649,0.00018366,2.636e-05,0.0,0 STARLINK-3153,1 49431U 21104Z   23220.99701910  .00002636  00000-0  18366-3 0  9998,2 49431  53.2176 145.7819 0001342  94.1497 265.9649 15.08834284 97242,6917.898,95.438,540.691,538.834,0.0
49431.0,STARLINK-3153,PAYLOAD,2023-08-10 04:32:38,15.08845641,0.0001257,53.2171,140.4261,122.5909,237.5205,-4.5233e-05,-1.008e-05,0.0,0 STARLINK-3153,1 49431U 21104Z   23222.18933608 -.00001008  00000-0 -45233-4 0  9990,2 49431  53.2171 140.4261 0001257 122.5909 237.5205 15.08845641 97421,6917.863,95.437,540.598,538.859,0.0
49431.0,STARLINK-3153,PAYLOAD,2023-08-11 18:41:54,15.08835542,0.0001296,53.2165,133.2905,90.6715,269.4426,4.1271e-06,-2.22e-06,0.0,0 STARLINK-3153,1 49431U 21104Z   23223.77910369 -.00000222  00000-0  41271-5 0  9990,2 49431  53.2165 133.2905 0001296  90.6715 269.4426 15.08835542 97666,6917.894,95.438,540.656,538.862,0.0
49431.0,STARLINK-3153,PAYLOAD,2023-08-13 02:29:36,15.08847217,0.0001222,53.2169,127.3444,87.2669,272.8463,7.6967e-05,9.38e-06,0.0,0 STARLINK-3153,1 49431U 21104Z   23225.10389743  .00000938  00000-0  76967-4 0  9997,2 49431  53.2169 127.3444 0001222  87.2669 272.8463 15.08847217 97864,6917.858,95.437,540.569,538.878,0.0
